[
  {
    "OBJECT_NAME": "OSCAR 7 (AO-7)",
    "OBJECT_ID": "1974-089B",
    "EPOCH": "2025-05-10T17:57:14.682240",
    "MEAN_MOTION": 12.53688979,
    "ECCENTRICITY": 0.0012238,
    "INCLINATION": 101.9939,
    "RA_OF_ASC_NODE": 134.6939,
    "ARG_OF_PERICENTER": 177.2231,
    "MEAN_ANOMALY": 4.3085,
    "EPHEMERIS_TYPE": 0,
    "CLASSIFICATION_TYPE": "U",
    "NORAD_CAT_ID": 7530,
    "ELEMENT_SET_NO": 999,
    "REV_AT_EPOCH": 31032,
    "BSTAR": 8.2104e-05,
    "MEAN_MOTION_DOT": -3.3e-07,
    "MEAN_MOTION_DDOT": 0
  },
  {
    "OBJECT_NAME": "PHASE 3B (AO-10)",
    "OBJECT_ID": "1983-058B",
    "EPOCH": "2025-05-08T19:19:13.011744",
    "MEAN_MOTION": 2.05870397,
    "ECCENTRICITY": 0.6056395,
    "INCLINATION": 26.8245,
    "RA_OF_ASC_NODE": 287.5983,
    "ARG_OF_PERICENTER": 3.6444,
    "MEAN_ANOMALY": 359.1689,
    "EPHEMERIS_TYPE": 0,
    "CLASSIFICATION_TYPE": "U",
    "NORAD_CAT_ID": 14129,
    "ELEMENT_SET_NO": 999,
    "REV_AT_EPOCH": 28716,
    "BSTAR": 0,
    "MEAN_MOTION_DOT": -9e-08,
    "MEAN_MOTION_DDOT": 0
  },
  {
    "OBJECT_NAME": "UOSAT 2 (UO-11)",
    "OBJECT_ID": "1984-021B",
    "EPOCH": "2025-05-10T20:06:53.113536",
    "MEAN_MOTION": 14.89297206,
    "ECCENTRICITY": 0.0009483,
    "INCLINATION": 97.7524,
    "RA_OF_ASC_NODE": 97.8014,
    "ARG_OF_PERICENTER": 77.3416,
    "MEAN_ANOMALY": 282.8861,
    "EPHEMERIS_TYPE": 0,
    "CLASSIFICATION_TYPE": "U",
    "NORAD_CAT_ID": 14781,
    "ELEMENT_SET_NO": 999,
    "REV_AT_EPOCH": 21821,
    "BSTAR": 0.00018101,
    "MEAN_MOTION_DOT": 1.662e-05,
    "MEAN_MOTION_DDOT": 0
  },
  {
    "OBJECT_NAME": "LUSAT (LO-19)",
    "OBJECT_ID": "1990-005G",
    "EPOCH": "2025-05-10T14:12:15.659424",
    "MEAN_MOTION": 14.3394287,
    "ECCENTRICITY": 0.0010699,
    "INCLINATION": 98.8989,
    "RA_OF_ASC_NODE": 135.9357,
    "ARG_OF_PERICENTER": 310.2266,
    "MEAN_ANOMALY": 49.7981,
    "EPHEMERIS_TYPE": 0,
    "CLASSIFICATION_TYPE": "U",
    "NORAD_CAT_ID": 20442,
    "ELEMENT_SET_NO": 999,
    "REV_AT_EPOCH": 84475,
    "BSTAR": 7.9421e-05,
    "MEAN_MOTION_DOT": 1.75e-06,
    "MEAN_MOTION_DDOT": 0
  },
  {
    "OBJECT_NAME": "EYESAT A (AO-27)",
    "OBJECT_ID": "1993-061C",
    "EPOCH": "2025-05-10T10:15:05.224320",
    "MEAN_MOTION": 14.3078898,
    "ECCENTRICITY": 0.0008136,
    "INCLINATION": 98.7384,
    "RA_OF_ASC_NODE": 191.8291,
    "ARG_OF_PERICENTER": 193.6198,
    "MEAN_ANOMALY": 166.4766,
    "EPHEMERIS_TYPE": 0,
    "CLASSIFICATION_TYPE": "U",
    "NORAD_CAT_ID": 22825,
    "ELEMENT_SET_NO": 999,
    "REV_AT_EPOCH": 64940,
    "BSTAR": 8.009e-05,
    "MEAN_MOTION_DOT": 1.65e-06,
    "MEAN_MOTION_DDOT": 0
  },
  {
    "OBJECT_NAME": "ITAMSAT (IO-26)",
    "OBJECT_ID": "1993-061D",
    "EPOCH": "2025-05-10T10:54:41.579424",
    "MEAN_MOTION": 14.31201015,
    "ECCENTRICITY": 0.0008987,
    "INCLINATION": 98.7332,
    "RA_OF_ASC_NODE": 191.738,
    "ARG_OF_PERICENTER": 178.2674,
    "MEAN_ANOMALY": 181.8541,
    "EPHEMERIS_TYPE": 0,
    "CLASSIFICATION_TYPE": "U",
    "NORAD_CAT_ID": 22826,
    "ELEMENT_SET_NO": 999,
    "REV_AT_EPOCH": 64970,
    "BSTAR": 8.7728e-05,
    "MEAN_MOTION_DOT": 1.87e-06,
    "MEAN_MOTION_DDOT": 0
  },
  {
    "OBJECT_NAME": "RADIO ROSTO (RS-15)",
    "OBJECT_ID": "1994-085A",
    "EPOCH": "2025-05-10T13:20:14.493120",
    "MEAN_MOTION": 11.2758129,
    "ECCENTRICITY": 0.0145615,
    "INCLINATION": 64.816,
    "RA_OF_ASC_NODE": 234.3578,
    "ARG_OF_PERICENTER": 80.2465,
    "MEAN_ANOMALY": 281.4869,
    "EPHEMERIS_TYPE": 0,
    "CLASSIFICATION_TYPE": "U",
    "NORAD_CAT_ID": 23439,
    "ELEMENT_SET_NO": 999,
    "REV_AT_EPOCH": 25050,
    "BSTAR": -0.00027407,
    "MEAN_MOTION_DOT": -5.2e-07,
    "MEAN_MOTION_DDOT": 0
  },
  {
    "OBJECT_NAME": "JAS-2 (FO-29)",
    "OBJECT_ID": "1996-046B",
    "EPOCH": "2025-05-10T10:32:54.317184",
    "MEAN_MOTION": 13.53246843,
    "ECCENTRICITY": 0.0350895,
    "INCLINATION": 98.5794,
    "RA_OF_ASC_NODE": 28.2944,
    "ARG_OF_PERICENTER": 60.77,
    "MEAN_ANOMALY": 302.8051,
    "EPHEMERIS_TYPE": 0,
    "CLASSIFICATION_TYPE": "U",
    "NORAD_CAT_ID": 24278,
    "ELEMENT_SET_NO": 999,
    "REV_AT_EPOCH": 41869,
    "BSTAR": 6.3864e-05,
    "MEAN_MOTION_DOT": 3e-07,
    "MEAN_MOTION_DDOT": 0
  },
  {
    "OBJECT_NAME": "TECHSAT 1B (GO-32)",
    "OBJECT_ID": "1998-043D",
    "EPOCH": "2025-05-10T16:41:42.026784",
    "MEAN_MOTION": 14.2430737,
    "ECCENTRICITY": 6.07e-05,
    "INCLINATION": 98.9688,
    "RA_OF_ASC_NODE": 109.1942,
    "ARG_OF_PERICENTER": 353.0509,
    "MEAN_ANOMALY": 7.0661,
    "EPHEMERIS_TYPE": 0,
    "CLASSIFICATION_TYPE": "U",
    "NORAD_CAT_ID": 25397,
    "ELEMENT_SET_NO": 999,
    "REV_AT_EPOCH": 39425,
    "BSTAR": 6.1569e-05,
    "MEAN_MOTION_DOT": 9.6e-07,
    "MEAN_MOTION_DDOT": 0
  },
  {
    "OBJECT_NAME": "ISS (ZARYA)",
    "OBJECT_ID": "1998-067A",
    "EPOCH": "2025-05-10T11:28:05.862432",
    "MEAN_MOTION": 15.49451152,
    "ECCENTRICITY": 0.0002317,
    "INCLINATION": 51.6338,
    "RA_OF_ASC_NODE": 133.8645,
    "ARG_OF_PERICENTER": 95.1602,
    "MEAN_ANOMALY": 264.9651,
    "EPHEMERIS_TYPE": 0,
    "CLASSIFICATION_TYPE": "U",
    "NORAD_CAT_ID": 25544,
    "ELEMENT_SET_NO": 999,
    "REV_AT_EPOCH": 50931,
    "BSTAR": 0.00018811,
    "MEAN_MOTION_DOT": 0.00010091,
    "MEAN_MOTION_DDOT": 0
  },
  {
    "OBJECT_NAME": "PCSAT (NO-44)",
    "OBJECT_ID": "2001-043C",
    "EPOCH": "2025-05-10T14:34:46.563168",
    "MEAN_MOTION": 14.31719975,
    "ECCENTRICITY": 0.0005774,
    "INCLINATION": 67.0506,
    "RA_OF_ASC_NODE": 205.3329,
    "ARG_OF_PERICENTER": 273.339,
    "MEAN_ANOMALY": 86.7051,
    "EPHEMERIS_TYPE": 0,
    "CLASSIFICATION_TYPE": "U",
    "NORAD_CAT_ID": 26931,
    "ELEMENT_SET_NO": 999,
    "REV_AT_EPOCH": 23297,
    "BSTAR": 9.6646e-05,
    "MEAN_MOTION_DOT": 1.75e-06,
    "MEAN_MOTION_DDOT": 0
  },
  {
    "OBJECT_NAME": "SAUDISAT 1C (SO-50)",
    "OBJECT_ID": "2002-058C",
    "EPOCH": "2025-05-10T20:28:40.443168",
    "MEAN_MOTION": 14.81546718,
    "ECCENTRICITY": 0.0052775,
    "INCLINATION": 64.5527,
    "RA_OF_ASC_NODE": 292.2883,
    "ARG_OF_PERICENTER": 340.9211,
    "MEAN_ANOMALY": 18.9916,
    "EPHEMERIS_TYPE": 0,
    "CLASSIFICATION_TYPE": "U",
    "NORAD_CAT_ID": 27607,
    "ELEMENT_SET_NO": 999,
    "REV_AT_EPOCH": 20503,
    "BSTAR": 0.00018674,
    "MEAN_MOTION_DOT": 1.355e-05,
    "MEAN_MOTION_DDOT": 0
  },
  {
    "OBJECT_NAME": "CUTE-1 (CO-55)",
    "OBJECT_ID": "2003-031E",
    "EPOCH": "2025-05-10T06:07:04.599840",
    "MEAN_MOTION": 14.23972713,
    "ECCENTRICITY": 0.0008353,
    "INCLINATION": 98.6767,
    "RA_OF_ASC_NODE": 138.9192,
    "ARG_OF_PERICENTER": 276.4349,
    "MEAN_ANOMALY": 83.5879,
    "EPHEMERIS_TYPE": 0,
    "CLASSIFICATION_TYPE": "U",
    "NORAD_CAT_ID": 27844,
    "ELEMENT_SET_NO": 999,
    "REV_AT_EPOCH": 13435,
    "BSTAR": 0.00021886,
    "MEAN_MOTION_DOT": 4.58e-06,
    "MEAN_MOTION_DDOT": 0
  },
  {
    "OBJECT_NAME": "CUBESAT XI-IV (CO-57)",
    "OBJECT_ID": "2003-031J",
    "EPOCH": "2025-05-09T23:28:45.058656",
    "MEAN_MOTION": 14.23310166,
    "ECCENTRICITY": 0.0008348,
    "INCLINATION": 98.6793,
    "RA_OF_ASC_NODE": 138.6746,
    "ARG_OF_PERICENTER": 296.9026,
    "MEAN_ANOMALY": 63.1299,
    "EPHEMERIS_TYPE": 0,
    "CLASSIFICATION_TYPE": "U",
    "NORAD_CAT_ID": 27848,
    "ELEMENT_SET_NO": 999,
    "REV_AT_EPOCH": 13401,
    "BSTAR": 0.00017264,
    "MEAN_MOTION_DOT": 3.47e-06,
    "MEAN_MOTION_DDOT": 0
  }
]