OSCAR 7 (AO-7)          
1 07530U 74089B   25130.74808660 -.00000033  00000+0  82104-4 0  9998
2 07530 101.9939 134.6939 0012238 177.2231   4.3085 12.53688979310320
PHASE 3B (AO-10)        
1 14129U 83058B   25128.80501171 -.00000009  00000+0  00000+0 0  9990
2 14129  26.8245 287.5983 6056395   3.6444 359.1689  2.05870397287169
UOSAT 2 (UO-11)         
1 14781U 84021B   25130.83811474  .00001662  00000+0  18101-3 0  9991
2 14781  97.7524  97.8014 0009483  77.3416 282.8861 14.89297206218215
LUSAT (LO-19)           
1 20442U 90005G   25130.59184791  .00000175  00000+0  79421-4 0  9990
2 20442  98.8989 135.9357 0010699 310.2266  49.7981 14.33942870844750
EYESAT A (AO-27)        
1 22825U 93061C   25130.42714380  .00000165  00000+0  80090-4 0  9990
2 22825  98.7384 191.8291 0008136 193.6198 166.4766 14.30788980649403
ITAMSAT (IO-26)         
1 22826U 93061D   25130.45464791  .00000187  00000+0  87728-4 0  9991
2 22826  98.7332 191.7380 0008987 178.2674 181.8541 14.31201015649702
RADIO ROSTO (RS-15)     
1 23439U 94085A   25130.55572330 -.00000052  00000+0 -27407-3 0  9999
2 23439  64.8160 234.3578 0145615  80.2465 281.4869 11.27581290250503
JAS-2 (FO-29)           
1 24278U 96046B   25130.43951756  .00000030  00000+0  63864-4 0  9992
2 24278  98.5794  28.2944 0350895  60.7700 302.8051 13.53246843418692
TECHSAT 1B (GO-32)      
1 25397U 98043D   25130.69562531  .00000096  00000+0  61569-4 0  9993
2 25397  98.9688 109.1942 0000607 353.0509   7.0661 14.24307370394254
ISS (ZARYA)             
1 25544U 98067A   25130.47784563  .00010091  00000+0  18811-3 0  9997
2 25544  51.6338 133.8645 0002317  95.1602 264.9651 15.49451152509312
PCSAT (NO-44)           
1 26931U 01043C   25130.60748337  .00000175  00000+0  96646-4 0  9995
2 26931  67.0506 205.3329 0005774 273.3390  86.7051 14.31719975232978
SAUDISAT 1C (SO-50)     
1 27607U 02058C   25130.85324587  .00001355  00000+0  18674-3 0  9992
2 27607  64.5527 292.2883 0052775 340.9211  18.9916 14.81546718205032
CUTE-1 (CO-55)          
1 27844U 03031E   25130.25491435  .00000458  00000+0  21886-3 0  9990
2 27844  98.6767 138.9192 0008353 276.4349  83.5879 14.23972713134352
CUBESAT XI-IV (CO-57)   
1 27848U 03031J   25129.97829929  .00000347  00000+0  17264-3 0  9996
2 27848  98.6793 138.6746 0008348 296.9026  63.1299 14.23310166134011
